[{"OBJECT_NAME":"SHIYAN-5 (SY-5)","OBJECT_ID":"2013-068A","EPOCH":"2026-03-09T23:05:17.847168","MEAN_MOTION":14.43628019,"ECCENTRICITY":0.00128666,"INCLINATION":98.0874,"RA_OF_ASC_NODE":305.1507,"ARG_OF_PERICENTER":245.0461,"MEAN_ANOMALY":114.9394,"EPHEMERIS_TYPE":0,"CLASSIFICATION_TYPE":"U","NORAD_CAT_ID":39455,"ELEMENT_SET_NO":999,"REV_AT_EPOCH":64731,"BSTAR":0.00021006914,"MEAN_MOTION_DOT":6.72e-6,"MEAN_MOTION_DDOT":0},{"OBJECT_NAME":"SL-8 R\/B","OBJECT_ID":"1982-051B","EPOCH":"2026-03-09T22:27:17.819424","MEAN_MOTION":14.37352903,"ECCENTRICITY":0.00237807,"INCLINATION":74.0409,"RA_OF_ASC_NODE":260.904,"ARG_OF_PERICENTER":36.699,"MEAN_ANOMALY":323.5786,"EPHEMERIS_TYPE":0,"CLASSIFICATION_TYPE":"U","NORAD_CAT_ID":13242,"ELEMENT_SET_NO":999,"REV_AT_EPOCH":29100,"BSTAR":8.7672643e-5,"MEAN_MOTION_DOT":2.36e-6,"MEAN_MOTION_DDOT":0}]
